NORAD_CAT_ID,OBJECT_NAME,OBJECT_TYPE,EPOCH,MEAN_MOTION,ECCENTRICITY,INCLINATION,RA_OF_ASC_NODE,ARG_OF_PERICENTER,MEAN_ANOMALY,BSTAR,MEAN_MOTION_DOT,MEAN_MOTION_DDOT,TLE_LINE0,TLE_LINE1,TLE_LINE2,SEMIMAJOR_AXIS,PERIOD,APOGEE,PERIGEE,DECAYED
51879.0,STARLINK-3572,PAYLOAD,2024-02-17 14:50:39,15.08845595,0.0001357,53.2149,130.8102,92.7895,267.3252,0.00019244,2.777e-05,0.0,0 STARLINK-3572,1 51879U 22022AD  24048.61851616  .00002777  00000-0  19244-3 0  9996,2 51879  53.2149 130.8102 0001357  92.7895 267.3252 15.08845595109868,6917.863,95.437,540.667,538.79,0.0
51879.0,STARLINK-3572,PAYLOAD,2024-02-17 22:47:36,15.08832598,0.000183,53.2156,129.3226,97.6813,262.4387,4.1148e-05,3.67e-06,0.0,0 STARLINK-3572,1 51879U 22022AD  24048.94972404  .00000367  00000-0  41148-4 0  9993,2 51879  53.2156 129.3226 0001830  97.6813 262.4387 15.08832598109916,6917.903,95.438,541.034,538.502,0.0
51879.0,STARLINK-3572,PAYLOAD,2024-02-18 14:41:27,15.08848986,0.0001709,53.2153,126.3451,113.1611,246.9561,0.00047921,7.349e-05,0.0,0 STARLINK-3572,1 51879U 22022AD  24049.61211887  .00007349  00000-0  47921-3 0  9990,2 51879  53.2153 126.3451 0001709 113.1611 246.9561 15.08848986110017,6917.853,95.437,540.9,538.536,0.0
51879.0,STARLINK-3572,PAYLOAD,2024-02-18 22:38:22,15.08844759,0.0001501,53.2147,124.8627,92.7732,267.3432,0.00035679,5.396e-05,0.0,0 STARLINK-3572,1 51879U 22022AD  24049.94332169  .00005396  00000-0  35679-3 0  9990,2 51879  53.2147 124.8627 0001501  92.7732 267.3432 15.08844759110067,6917.866,95.437,540.769,538.692,0.0
51879.0,STARLINK-3572,PAYLOAD,2024-02-19 11:21:27,15.08847694,0.0001641,53.2167,122.484,97.5607,262.5572,0.00023019,3.378e-05,0.0,0 STARLINK-3572,1 51879U 22022AD  24050.47324029  .00003378  00000-0  23019-3 0  9999,2 51879  53.2167 122.4840 0001641  97.5607 262.5572 15.08847694110141,6917.857,95.437,540.857,538.587,0.0
51879.0,STARLINK-3572,PAYLOAD,2024-02-20 11:12:15,15.08843645,0.0001486,53.2158,118.0278,88.9847,271.1315,0.00012492,1.701e-05,0.0,0 STARLINK-3572,1 51879U 22022AD  24051.46684145  .00001701  00000-0  12492-3 0  9998,2 51879  53.2158 118.0278 0001486  88.9847 271.1315 15.08843645110293,6917.869,95.437,540.762,538.706,0.0
51879.0,STARLINK-3572,PAYLOAD,2024-02-20 20:44:33,15.08843949,0.0001467,53.2156,116.2438,89.5435,270.5726,-4.7642e-07,-2.96e-06,0.0,0 STARLINK-3572,1 51879U 22022AD  24051.86428011 -.00000296  00000-0 -47642-6 0  9998,2 51879  53.2156 116.2438 0001467  89.5435 270.5726 15.08843949110351,6917.868,95.437,540.748,538.718,0.0
51879.0,STARLINK-3572,PAYLOAD,2024-02-21 11:03:01,15.08845159,0.0001465,53.2152,113.5654,92.0364,268.0796,0.00018168,2.605e-05,0.0,0 STARLINK-3572,1 51879U 22022AD  24052.46043922  .00002605  00000-0  18168-3 0  9991,2 51879  53.2152 113.5654 0001465  92.0364 268.0796 15.08845159110449,6917.865,95.437,540.743,538.716,0.0
51879.0,STARLINK-3572,PAYLOAD,2024-02-21 20:35:20,15.08846417,0.0001435,53.2153,111.7816,91.959,268.1566,5.6285e-05,6.08e-06,0.0,0 STARLINK-3572,1 51879U 22022AD  24052.85787683  .00000608  00000-0  56285-4 0  9997,2 51879  53.2153 111.7816 0001435  91.9590 268.1566 15.08846417110507,6917.861,95.437,540.718,538.733,0.0
51879.0,STARLINK-3572,PAYLOAD,2024-02-22 10:53:49,15.08831748,0.0001543,53.2165,109.1049,92.967,267.1499,8.3181e-06,-1.56e-06,0.0,0 STARLINK-3572,1 51879U 22022AD  24053.45405039 -.00000156  00000-0  83181-5 0  9991,2 51879  53.2165 109.1049 0001543  92.9670 267.1499 15.08831748110593,6917.906,95.438,540.838,538.703,0.0
51879.0,STARLINK-3572,PAYLOAD,2024-02-22 20:26:08,15.08841975,0.0001857,53.2195,107.3216,96.7762,263.3441,-5.1654e-05,-1.11e-05,0.0,0 STARLINK-3572,1 51879U 22022AD  24053.85148539 -.00001110  00000-0 -51654-4 0  9995,2 51879  53.2195 107.3216 0001857  96.7762 263.3441 15.08841975110659,6917.874,95.437,541.024,538.455,0.0
51879.0,STARLINK-3572,PAYLOAD,2024-02-23 02:47:40,15.08841914,0.0001546,53.2168,106.1302,94.5007,265.6161,7.7591e-05,9.47e-06,0.0,0 STARLINK-3572,1 51879U 22022AD  24054.11644273  .00000947  00000-0  77591-4 0  9994,2 51879  53.2168 106.1302 0001546  94.5007 265.6161 15.08841914110696,6917.875,95.437,540.809,538.67,0.0
51879.0,STARLINK-3572,PAYLOAD,2024-02-23 10:44:35,15.08853873,0.0001877,53.2169,104.6441,94.7788,265.3419,5.4306e-05,5.77e-06,0.0,0 STARLINK-3572,1 51879U 22022AD  24054.44763473  .00000577  00000-0  54306-4 0  9992,2 51879  53.2169 104.6441 0001877  94.7788 265.3419 15.08853873110745,6917.838,95.437,541.001,538.405,0.0
51879.0,STARLINK-3572,PAYLOAD,2024-02-24 02:38:28,15.08835084,0.0001548,53.2173,101.6693,84.3098,275.807,0.00013892,1.923e-05,0.0,0 STARLINK-3572,1 51879U 22022AD  24055.11004642  .00001923  00000-0  13892-3 0  9993,2 51879  53.2173 101.6693 0001548  84.3098 275.8070 15.08835084110844,6917.895,95.438,540.831,538.69,0.0
51879.0,STARLINK-3572,PAYLOAD,2024-02-24 10:35:23,15.08836093,0.0001809,53.2173,100.1835,73.0484,287.0707,6.8025e-05,7.95e-06,0.0,0 STARLINK-3572,1 51879U 22022AD  24055.44124943  .00000795  00000-0  68025-4 0  9991,2 51879  53.2173 100.1835 0001809  73.0484 287.0707 15.08836093110898,6917.892,95.438,541.009,538.506,0.0
51879.0,STARLINK-3572,PAYLOAD,2024-02-25 08:50:47,15.08840076,0.000129,53.2168,96.0189,89.1766,270.9374,9.7312e-05,1.261e-05,0.0,0 STARLINK-3572,1 51879U 22022AD  24056.36860479  .00001261  00000-0  97312-4 0  9994,2 51879  53.2168  96.0189 0001290  89.1766 270.9374 15.08840076111036,6917.88,95.438,540.638,538.853,0.0
51879.0,STARLINK-3572,PAYLOAD,2024-02-25 19:58:28,15.08845367,0.0001527,53.2165,93.9371,87.2758,272.8409,0.00011854,1.599e-05,0.0,0 STARLINK-3572,1 51879U 22022AD  24056.83227990  .00001599  00000-0  11854-3 0  9991,2 51879  53.2165  93.9371 0001527  87.2758 272.8409 15.08845367111101,6917.864,95.437,540.785,538.673,0.0
51879.0,STARLINK-3572,PAYLOAD,2024-02-26 08:41:33,15.08847416,0.0001592,53.2163,91.5583,89.3998,270.7176,0.0001612,2.279e-05,0.0,0 STARLINK-3572,1 51879U 22022AD  24057.36219773  .00002279  00000-0  16120-3 0  9997,2 51879  53.2163  91.5583 0001592  89.3998 270.7176 15.08847416111182,6917.858,95.437,540.824,538.621,0.0
51879.0,STARLINK-3572,PAYLOAD,2024-02-27 08:32:21,15.08840191,0.0001498,53.2148,87.0958,92.4458,267.6706,6.4994e-06,-1.85e-06,0.0,0 STARLINK-3572,1 51879U 22022AD  24058.35580511 -.00000185  00000-0  64994-5 0  9997,2 51879  53.2148  87.0958 0001498  92.4458 267.6706 15.08840191111336,6917.88,95.438,540.781,538.709,0.0
51879.0,STARLINK-3572,PAYLOAD,2024-02-28 08:23:08,15.08837991,0.0001369,53.2159,82.6385,88.4842,271.6307,3.0187e-05,1.93e-06,0.0,0 STARLINK-3572,1 51879U 22022AD  24059.34940724  .00000193  00000-0  30187-4 0  9997,2 51879  53.2159  82.6385 0001369  88.4842 271.6307 15.08837991111484,6917.887,95.438,540.699,538.804,0.0
51879.0,STARLINK-3572,PAYLOAD,2024-02-28 17:55:27,15.08843163,0.0001366,53.2159,80.8542,96.8342,263.2805,-8.8434e-05,-1.695e-05,0.0,0 STARLINK-3572,1 51879U 22022AD  24059.74684650 -.00001695  00000-0 -88434-4 0  9992,2 51879  53.2159  80.8542 0001366  96.8342 263.2805 15.08843163111549,6917.871,95.437,540.681,538.791,0.0
51879.0,STARLINK-3572,PAYLOAD,2024-02-29 08:13:55,15.08837512,0.0001322,53.2161,78.177,93.1761,266.9382,8.8478e-05,1.12e-05,0.0,0 STARLINK-3572,1 51879U 22022AD  24060.34300848  .00001120  00000-0  88478-4 0  9993,2 51879  53.2161  78.1770 0001322  93.1761 266.9382 15.08837512111633,6917.888,95.438,540.668,538.838,0.0
51879.0,STARLINK-3572,PAYLOAD,2024-02-29 17:46:14,15.08838013,0.000135,53.2161,76.3926,92.4413,267.6734,8.8242e-05,1.117e-05,0.0,0 STARLINK-3572,1 51879U 22022AD  24060.74044860  .00001117  00000-0  88242-4 0  9991,2 51879  53.2161  76.3926 0001350  92.4413 267.6734 15.08838013111695,6917.886,95.438,540.685,538.818,0.0
51879.0,STARLINK-3572,PAYLOAD,2024-03-01 00:07:47,15.0883906,0.0001395,53.2168,75.2025,88.7954,271.3197,7.3165e-05,8.77e-06,0.0,0 STARLINK-3572,1 51879U 22022AD  24061.00540931  .00000877  00000-0  73165-4 0  9991,2 51879  53.2168  75.2025 0001395  88.7954 271.3197 15.08839060111730,6917.883,95.438,540.713,538.783,0.0
51879.0,STARLINK-3572,PAYLOAD,2024-03-01 09:40:06,15.08839031,0.0001508,53.2172,73.4192,91.986,268.1304,7.72e-05,9.41e-06,0.0,0 STARLINK-3572,1 51879U 22022AD  24061.40285127  .00000941  00000-0  77200-4 0  9994,2 51879  53.2172  73.4192 0001508  91.9860 268.1304 15.08839031111796,6917.883,95.438,540.792,538.705,0.0
51879.0,STARLINK-3572,PAYLOAD,2024-03-02 07:55:30,15.08841106,0.0001755,53.2173,69.257,100.0152,260.1039,0.00017588,2.512e-05,0.0,0 STARLINK-3572,1 51879U 22022AD  24062.33020861  .00002512  00000-0  17588-3 0  9997,2 51879  53.2173  69.2570 0001755 100.0152 260.1039 15.08841106111939,6917.877,95.437,540.956,538.528,0.0
51879.0,STARLINK-3572,PAYLOAD,2024-03-02 17:27:48,15.08859403,0.0001481,53.217,67.4675,77.6257,282.4901,-0.00012402,-2.262e-05,0.0,0 STARLINK-3572,1 51879U 22022AD  24062.72764168 -.00002262  00000-0 -12402-3 0  9999,2 51879  53.2170  67.4675 0001481  77.6257 282.4901 15.08859403111993,6917.821,95.436,540.711,538.662,0.0
51879.0,STARLINK-3572,PAYLOAD,2024-03-03 06:10:54,15.08836628,0.0001439,53.2167,65.091,89.6438,270.4719,0.00014723,2.056e-05,0.0,0 STARLINK-3572,1 51879U 22022AD  24063.25757321  .00002056  00000-0  14723-3 0  9998,2 51879  53.2167  65.0910 0001439  89.6438 270.4719 15.08836628112070,6917.891,95.438,540.751,538.76,0.0
51879.0,STARLINK-3572,PAYLOAD,2024-03-03 09:21:39,15.08849013,0.0001561,53.2172,64.4964,85.4816,274.6354,0.00011729,1.58e-05,0.0,0 STARLINK-3572,1 51879U 22022AD  24063.39004623  .00001580  00000-0  11729-3 0  9997,2 51879  53.2172  64.4964 0001561  85.4816 274.6354 15.08849013112093,6917.853,95.437,540.798,538.638,0.0
51879.0,STARLINK-3572,PAYLOAD,2024-03-04 04:26:18,15.08837534,0.0001645,53.2184,60.9272,86.5868,273.5313,1.7574e-06,-2.6e-06,0.0,0 STARLINK-3572,1 51879U 22022AD  24064.18493854 -.00000260  00000-0  17574-5 0  9994,2 51879  53.2184  60.9272 0001645  86.5868 273.5313 15.08837534112213,6917.888,95.438,540.891,538.615,0.0
